{"type": "FeatureCollection", "features": [ {"type": "Feature", "properties": {"norad_id": 40697, "name": "SENTINEL-2A", "group": "resource", "lat": 56.5127453636007, "lon": -111.0038858036441, "alt_km": 782.9208761260388, "timestamp": "2025-12-09T05:43:20.384999+00:00", "meta": {"OBJECT_NAME": "SENTINEL-2A", "OBJECT_ID": "2015-028A", "EPOCH": "2025-12-08T20:45:38.164320", "MEAN_MOTION": 14.30824695, "ECCENTRICITY": 0.0001043, "INCLINATION": 98.5696, "RA_OF_ASC_NODE": 55.4529, "ARG_OF_PERICENTER": 88.8575, "MEAN_ANOMALY": 271.2727, "EPHEMERIS_TYPE": 0, "CLASSIFICATION_TYPE": "U", "NORAD_CAT_ID": 40697, "ELEMENT_SET_NO": 999, "REV_AT_EPOCH": 54651, "BSTAR": 7.4828e-05, "MEAN_MOTION_DOT": 1.53e-06, "MEAN_MOTION_DDOT": 0}, "tle": {"line1": "1 40697U 15028A   25342.86502505  .00000153  00000+0  74828-4 0  9990", "line2": "2 40697  98.5696  55.4529 0001043  88.8575 271.2727 14.30824695546511"}}, "geometry": {"type": "Point", "coordinates": [-111.0038858036441, 56.5127453636007]}}, {"type": "Feature", "properties": {"norad_id": 40701, "name": "GAOFEN-8", "group": "resource", "lat": -73.00389435046118, "lon": -45.03109358966829, "alt_km": 460.22750416486633, "timestamp": "2025-12-09T05:43:20.385009+00:00", "meta": {"OBJECT_NAME": "GAOFEN-8", "OBJECT_ID": "2015-030A", "EPOCH": "2025-12-08T20:48:48.271104", "MEAN_MOTION": 15.38355292, "ECCENTRICITY": 0.0011439, "INCLINATION": 97.6909, "RA_OF_ASC_NODE": 160.8196, "ARG_OF_PERICENTER": 151.2568, "MEAN_ANOMALY": 208.9309, "EPHEMERIS_TYPE": 0, "CLASSIFICATION_TYPE": "U", "NORAD_CAT_ID": 40701, "ELEMENT_SET_NO": 999, "REV_AT_EPOCH": 58211, "BSTAR": 0.00065388, "MEAN_MOTION_DOT": 0.00024741, "MEAN_MOTION_DDOT": 0}, "tle": {"line1": "1 40701U 15030A   25342.86722536  .00024741  00000+0  65388-3 0  9996", "line2": "2 40701  97.6909 160.8196 0011439 151.2568 208.9309 15.38355292582112"}}, "geometry": {"type": "Point", "coordinates": [-45.03109358966829, -73.00389435046118]}}, {"type": "Feature", "properties": {"norad_id": 40718, "name": "CARBONITE 1 (CBNT-1)", "group": "resource", "lat": 12.42544790981822, "lon": -13.868361569215546, "alt_km": 613.0498233823992, "timestamp": "2025-12-09T05:43:20.385019+00:00", "meta": {"OBJECT_NAME": "CARBONITE 1 (CBNT-1)", "OBJECT_ID": "2015-032D", "EPOCH": "2025-12-08T19:15:05.922432", "MEAN_MOTION": 14.82717757, "ECCENTRICITY": 0.0014175, "INCLINATION": 97.6404, "RA_OF_ASC_NODE": 164.0199, "ARG_OF_PERICENTER": 194.0867, "MEAN_ANOMALY": 165.9954, "EPHEMERIS_TYPE": 0, "CLASSIFICATION_TYPE": "U", "NORAD_CAT_ID": 40718, "ELEMENT_SET_NO": 999, "REV_AT_EPOCH": 56112, "BSTAR": 0.0006185, "MEAN_MOTION_DOT": 4.952e-05, "MEAN_MOTION_DDOT": 0}, "tle": {"line1": "1 40718U 15032D   25342.80215188  .00004952  00000+0  61850-3 0  9992", "line2": "2 40718  97.6404 164.0199 0014175 194.0867 165.9954 14.82717757561128"}}, "geometry": {"type": "Point", "coordinates": [-13.868361569215546, 12.42544790981822]}}, {"type": "Feature", "properties": {"norad_id": 40878, "name": "YAOGAN-27", "group": "resource", "lat": 16.58546931451033, "lon": 156.05911989152645, "alt_km": 1204.0986784261422, "timestamp": "2025-12-09T05:43:20.385029+00:00", "meta": {"OBJECT_NAME": "YAOGAN-27", "OBJECT_ID": "2015-040A", "EPOCH": "2025-12-08T21:35:52.038240", "MEAN_MOTION": 13.16058155, "ECCENTRICITY": 0.0007687, "INCLINATION": 100.1003, "RA_OF_ASC_NODE": 332.693, "ARG_OF_PERICENTER": 296.2827, "MEAN_ANOMALY": 63.7497, "EPHEMERIS_TYPE": 0, "CLASSIFICATION_TYPE": "U", "NORAD_CAT_ID": 40878, "ELEMENT_SET_NO": 999, "REV_AT_EPOCH": 49263, "BSTAR": -0.00094724, "MEAN_MOTION_DOT": -4.02e-06, "MEAN_MOTION_DDOT": 0}, "tle": {"line1": "1 40878U 15040A   25342.89990785 -.00000402  00000+0 -94724-3 0  9994", "line2": "2 40878 100.1003 332.6930 0007687 296.2827  63.7497 13.16058155492639"}}, "geometry": {"type": "Point", "coordinates": [156.05911989152645, 16.58546931451033]}}, {"type": "Feature", "properties": {"norad_id": 40894, "name": "GAOFEN-9 01", "group": "resource", "lat": 81.96343463128119, "lon": -85.37978631949991, "alt_km": 600.579397836812, "timestamp": "2025-12-09T05:43:20.385040+00:00", "meta": {"OBJECT_NAME": "GAOFEN-9 01", "OBJECT_ID": "2015-047A", "EPOCH": "2025-12-08T21:12:33.022656", "MEAN_MOTION": 14.82409111, "ECCENTRICITY": 0.0028671, "INCLINATION": 97.6546, "RA_OF_ASC_NODE": 22.0057, "ARG_OF_PERICENTER": 46.4755, "MEAN_ANOMALY": 313.8834, "EPHEMERIS_TYPE": 0, "CLASSIFICATION_TYPE": "U", "NORAD_CAT_ID": 40894, "ELEMENT_SET_NO": 999, "REV_AT_EPOCH": 55199, "BSTAR": 0.00029073, "MEAN_MOTION_DOT": 2.295e-05, "MEAN_MOTION_DDOT": 0}, "tle": {"line1": "1 40894U 15047A   25342.88371554  .00002295  00000+0  29073-3 0  9990", "line2": "2 40894  97.6546  22.0057 0028671  46.4755 313.8834 14.82409111551995"}}, "geometry": {"type": "Point", "coordinates": [-85.37978631949991, 81.96343463128119]}}, {"type": "Feature", "properties": {"norad_id": 41026, "name": "YAOGAN-28", "group": "resource", "lat": 74.49840096649108, "lon": 93.6798062466814, "alt_km": 481.8531588748083, "timestamp": "2025-12-09T05:43:20.385050+00:00", "meta": {"OBJECT_NAME": "YAOGAN-28", "OBJECT_ID": "2015-064A", "EPOCH": "2025-12-08T21:30:39.672000", "MEAN_MOTION": 15.2425151, "ECCENTRICITY": 0.0012232, "INCLINATION": 97.2809, "RA_OF_ASC_NODE": 120.7975, "ARG_OF_PERICENTER": 138.5658, "MEAN_ANOMALY": 221.6509, "EPHEMERIS_TYPE": 0, "CLASSIFICATION_TYPE": "U", "NORAD_CAT_ID": 41026, "ELEMENT_SET_NO": 999, "REV_AT_EPOCH": 56166, "BSTAR": 0.00047657, "MEAN_MOTION_DOT": 0.00011592, "MEAN_MOTION_DDOT": 0}, "tle": {"line1": "1 41026U 15064A   25342.89629250  .00011592  00000+0  47657-3 0  9995", "line2": "2 41026  97.2809 120.7975 0012232 138.5658 221.6509 15.24251510561662"}}, "geometry": {"type": "Point", "coordinates": [93.6798062466814, 74.49840096649108]}}, {"type": "Feature", "properties": {"norad_id": 41038, "name": "YAOGAN-29", "group": "resource", "lat": -25.76749023355816, "lon": 10.301838671907149, "alt_km": 625.632266316511, "timestamp": "2025-12-09T05:43:20.385061+00:00", "meta": {"OBJECT_NAME": "YAOGAN-29", "OBJECT_ID": "2015-069A", "EPOCH": "2025-12-08T20:07:21.856224", "MEAN_MOTION": 14.82877209, "ECCENTRICITY": 4.58e-05, "INCLINATION": 98.0217, "RA_OF_ASC_NODE": 5.9972, "ARG_OF_PERICENTER": 354.632, "MEAN_ANOMALY": 5.4888, "EPHEMERIS_TYPE": 0, "CLASSIFICATION_TYPE": "U", "NORAD_CAT_ID": 41038, "ELEMENT_SET_NO": 999, "REV_AT_EPOCH": 54241, "BSTAR": 0.00014693, "MEAN_MOTION_DOT": 1.136e-05, "MEAN_MOTION_DDOT": 0}, "tle": {"line1": "1 41038U 15069A   25342.83844741  .00001136  00000+0  14693-3 0  9998", "line2": "2 41038  98.0217   5.9972 0000458 354.6320   5.4888 14.82877209542414"}}, "geometry": {"type": "Point", "coordinates": [10.301838671907149, -25.76749023355816]}}, {"type": "Feature", "properties": {"norad_id": 41167, "name": "KENT RIDGE 1", "group": "resource", "lat": 6.898470996593613, "lon": -95.96912325971952, "alt_km": 493.81130676849443, "timestamp": "2025-12-09T05:43:20.385072+00:00", "meta": {"OBJECT_NAME": "KENT RIDGE 1", "OBJECT_ID": "2015-077B", "EPOCH": "2025-12-08T21:44:06.164160", "MEAN_MOTION": 15.2159128, "ECCENTRICITY": 0.000853, "INCLINATION": 14.979, "RA_OF_ASC_NODE": 239.5925, "ARG_OF_PERICENTER": 76.3186, "MEAN_ANOMALY": 283.8085, "EPHEMERIS_TYPE": 0, "CLASSIFICATION_TYPE": "U", "NORAD_CAT_ID": 41167, "ELEMENT_SET_NO": 999, "REV_AT_EPOCH": 55205, "BSTAR": 0.00028171, "MEAN_MOTION_DOT": 7.316e-05, "MEAN_MOTION_DDOT": 0}, "tle": {"line1": "1 41167U 15077B   25342.90562690  .00007316  00000+0  28171-3 0  9990", "line2": "2 41167  14.9790 239.5925 0008530  76.3186 283.8085 15.21591280552058"}}, "geometry": {"type": "Point", "coordinates": [-95.96912325971952, 6.898470996593613]}}, {"type": "Feature", "properties": {"norad_id": 41194, "name": "GAOFEN-4", "group": "resource", "lat": -0.045880707077028356, "lon": -90.18955768125498, "alt_km": 35784.275805217105, "timestamp": "2025-12-09T05:43:20.385085+00:00", "meta": {"OBJECT_NAME": "GAOFEN-4", "OBJECT_ID": "2015-083A", "EPOCH": "2025-12-08T20:57:18.601344", "MEAN_MOTION": 1.00270972, "ECCENTRICITY": 0.000363, "INCLINATION": 0.1604, "RA_OF_ASC_NODE": 80.7003, "ARG_OF_PERICENTER": 106.8208, "MEAN_ANOMALY": 310.3854, "EPHEMERIS_TYPE": 0, "CLASSIFICATION_TYPE": "U", "NORAD_CAT_ID": 41194, "ELEMENT_SET_NO": 999, "REV_AT_EPOCH": 3662, "BSTAR": 0, "MEAN_MOTION_DOT": -3.33e-06, "MEAN_MOTION_DDOT": 0}, "tle": {"line1": "1 41194U 15083A   25342.87313196 -.00000333  00000+0  00000+0 0  9998", "line2": "2 41194   0.1604  80.7003 0003630 106.8208 310.3854  1.00270972 36626"}}, "geometry": {"type": "Point", "coordinates": [-90.18955768125498, -0.045880707077028356]}}, {"type": "Feature", "properties": {"norad_id": 41240, "name": "JASON-3", "group": "resource", "lat": -62.95540712390414, "lon": 104.6081663243455, "alt_km": 1311.9180031272317, "timestamp": "2025-12-09T05:43:20.385097+00:00", "meta": {"OBJECT_NAME": "JASON-3", "OBJECT_ID": "2016-002A", "EPOCH": "2025-12-08T18:56:13.614144", "MEAN_MOTION": 12.87626336, "ECCENTRICITY": 0.0007133, "INCLINATION": 66.039, "RA_OF_ASC_NODE": 166.1303, "ARG_OF_PERICENTER": 270.5485, "MEAN_ANOMALY": 89.4717, "EPHEMERIS_TYPE": 0, "CLASSIFICATION_TYPE": "U", "NORAD_CAT_ID": 41240, "ELEMENT_SET_NO": 999, "REV_AT_EPOCH": 46273, "BSTAR": 4.985e-05, "MEAN_MOTION_DOT": -5e-07, "MEAN_MOTION_DDOT": 0}, "tle": {"line1": "1 41240U 16002A   25342.78904646 -.00000050  00000+0  49850-4 0  9995", "line2": "2 41240  66.0390 166.1303 0007133 270.5485  89.4717 12.87626336462734"}}, "geometry": {"type": "Point", "coordinates": [104.6081663243455, -62.95540712390414]}}]}